CCSDS_OMM_VERS = 2.0
CREATION_DATE  = 
ORIGINATOR     = 

OBJECT_NAME    = COSMOS 2242
OBJECT_ID      = 1993-024A
CENTER_NAME    = EARTH
REF_FRAME      = TEME
TIME_SYSTEM    = UTC
MEAN_ELEMENT_THEORY = SGP/SGP4

EPOCH          = 2026-04-05T10:43:07.807296
MEAN_MOTION    = 14.96679878
ECCENTRICITY   = .0015583
INCLINATION    = 82.5180
RA_OF_ASC_NODE = 241.1160
ARG_OF_PERICENTER = 210.9560
MEAN_ANOMALY   = 149.0746

EPHEMERIS_TYPE = 0
CLASSIFICATION_TYPE = U
NORAD_CAT_ID   = 22626
ELEMENT_SET_NO = 999
REV_AT_EPOCH   = 78439
BSTAR          = .24752E-3
MEAN_MOTION_DOT = .2856E-4
MEAN_MOTION_DDOT = 0

CCSDS_OMM_VERS = 2.0
CREATION_DATE  = 
ORIGINATOR     = 

OBJECT_NAME    = SL-16 R/B
OBJECT_ID      = 1993-059B
CENTER_NAME    = EARTH
REF_FRAME      = TEME
TIME_SYSTEM    = UTC
MEAN_ELEMENT_THEORY = SGP/SGP4

EPOCH          = 2026-04-05T07:08:44.710944
MEAN_MOTION    = 14.17235195
ECCENTRICITY   = .0016992
INCLINATION    = 70.9904
RA_OF_ASC_NODE = 315.0180
ARG_OF_PERICENTER = 177.0884
MEAN_ANOMALY   = 183.0342

EPHEMERIS_TYPE = 0
CLASSIFICATION_TYPE = U
NORAD_CAT_ID   = 22803
ELEMENT_SET_NO = 999
REV_AT_EPOCH   = 68330
BSTAR          = .10021E-3
MEAN_MOTION_DOT = .155E-5
MEAN_MOTION_DDOT = 0

CCSDS_OMM_VERS = 2.0
CREATION_DATE  = 
ORIGINATOR     = 

OBJECT_NAME    = ARIANE 40 R/B
OBJECT_ID      = 1993-061H
CENTER_NAME    = EARTH
REF_FRAME      = TEME
TIME_SYSTEM    = UTC
MEAN_ELEMENT_THEORY = SGP/SGP4

EPOCH          = 2026-04-05T10:38:42.027936
MEAN_MOTION    = 14.32876481
ECCENTRICITY   = .00104322
INCLINATION    = 98.4867
RA_OF_ASC_NODE = 163.7967
ARG_OF_PERICENTER = 198.8741
MEAN_ANOMALY   = 161.2058

EPHEMERIS_TYPE = 0
CLASSIFICATION_TYPE = U
NORAD_CAT_ID   = 22830
ELEMENT_SET_NO = 999
REV_AT_EPOCH   = 69793
BSTAR          = .13079666E-3
MEAN_MOTION_DOT = .314E-5
MEAN_MOTION_DDOT = 0

CCSDS_OMM_VERS = 2.0
CREATION_DATE  = 
ORIGINATOR     = 

OBJECT_NAME    = COSMOS 2278
OBJECT_ID      = 1994-023A
CENTER_NAME    = EARTH
REF_FRAME      = TEME
TIME_SYSTEM    = UTC
MEAN_ELEMENT_THEORY = SGP/SGP4

EPOCH          = 2026-04-05T11:20:41.851104
MEAN_MOTION    = 14.14375075
ECCENTRICITY   = .00093722
INCLINATION    = 71.0504
RA_OF_ASC_NODE = 119.0643
ARG_OF_PERICENTER = 334.0517
MEAN_ANOMALY   = 26.0134

EPHEMERIS_TYPE = 0
CLASSIFICATION_TYPE = U
NORAD_CAT_ID   = 23087
ELEMENT_SET_NO = 999
REV_AT_EPOCH   = 64859
BSTAR          = .49533961E-4
MEAN_MOTION_DOT = .48E-6
MEAN_MOTION_DDOT = 0

CCSDS_OMM_VERS = 2.0
CREATION_DATE  = 
ORIGINATOR     = 

OBJECT_NAME    = SL-16 R/B
OBJECT_ID      = 1994-023B
CENTER_NAME    = EARTH
REF_FRAME      = TEME
TIME_SYSTEM    = UTC
MEAN_ELEMENT_THEORY = SGP/SGP4

EPOCH          = 2026-04-05T12:10:13.698336
MEAN_MOTION    = 14.15020032
ECCENTRICITY   = .00056086
INCLINATION    = 71.0032
RA_OF_ASC_NODE = 14.5673
ARG_OF_PERICENTER = 262.4104
MEAN_ANOMALY   = 97.6382

EPHEMERIS_TYPE = 0
CLASSIFICATION_TYPE = U
NORAD_CAT_ID   = 23088
ELEMENT_SET_NO = 999
REV_AT_EPOCH   = 64988
BSTAR          = .86623944E-4
MEAN_MOTION_DOT = .12E-5
MEAN_MOTION_DDOT = 0

CCSDS_OMM_VERS = 2.0
CREATION_DATE  = 
ORIGINATOR     = 

OBJECT_NAME    = SL-16 R/B
OBJECT_ID      = 1994-074B
CENTER_NAME    = EARTH
REF_FRAME      = TEME
TIME_SYSTEM    = UTC
MEAN_ELEMENT_THEORY = SGP/SGP4

EPOCH          = 2026-04-05T14:06:17.227296
MEAN_MOTION    = 14.79440886
ECCENTRICITY   = .00077687
INCLINATION    = 97.7067
RA_OF_ASC_NODE = 125.3113
ARG_OF_PERICENTER = 126.4748
MEAN_ANOMALY   = 351.7434

EPHEMERIS_TYPE = 0
CLASSIFICATION_TYPE = U
NORAD_CAT_ID   = 23343
ELEMENT_SET_NO = 999
REV_AT_EPOCH   = 69122
BSTAR          = .9620562E-4
MEAN_MOTION_DOT = .669E-5
MEAN_MOTION_DDOT = 0

CCSDS_OMM_VERS = 2.0
CREATION_DATE  = 
ORIGINATOR     = 

OBJECT_NAME    = SL-16 R/B
OBJECT_ID      = 1994-077B
CENTER_NAME    = EARTH
REF_FRAME      = TEME
TIME_SYSTEM    = UTC
MEAN_ELEMENT_THEORY = SGP/SGP4

EPOCH          = 2026-04-05T14:52:11.034624
MEAN_MOTION    = 14.15567652
ECCENTRICITY   = .00015176
INCLINATION    = 70.9818
RA_OF_ASC_NODE = 295.8346
ARG_OF_PERICENTER = 186.9186
MEAN_ANOMALY   = 173.1916

EPHEMERIS_TYPE = 0
CLASSIFICATION_TYPE = U
NORAD_CAT_ID   = 23405
ELEMENT_SET_NO = 999
REV_AT_EPOCH   = 62004
BSTAR          = -.82904647E-4
MEAN_MOTION_DOT = -.21E-5
MEAN_MOTION_DDOT = 0

CCSDS_OMM_VERS = 2.0
CREATION_DATE  = 
ORIGINATOR     = 

OBJECT_NAME    = ARIANE 40+ R/B
OBJECT_ID      = 1995-021B
CENTER_NAME    = EARTH
REF_FRAME      = TEME
TIME_SYSTEM    = UTC
MEAN_ELEMENT_THEORY = SGP/SGP4

EPOCH          = 2026-04-05T10:10:10.543296
MEAN_MOTION    = 14.39793132
ECCENTRICITY   = .00077771
INCLINATION    = 98.4453
RA_OF_ASC_NODE = 166.5380
ARG_OF_PERICENTER = 67.7012
MEAN_ANOMALY   = 303.0795

EPHEMERIS_TYPE = 0
CLASSIFICATION_TYPE = U
NORAD_CAT_ID   = 23561
ELEMENT_SET_NO = 999
REV_AT_EPOCH   = 62309
BSTAR          = .14893209E-3
MEAN_MOTION_DOT = .424E-5
MEAN_MOTION_DDOT = 0

CCSDS_OMM_VERS = 2.0
CREATION_DATE  = 
ORIGINATOR     = 

OBJECT_NAME    = SL-16 R/B
OBJECT_ID      = 1995-058B
CENTER_NAME    = EARTH
REF_FRAME      = TEME
TIME_SYSTEM    = UTC
MEAN_ELEMENT_THEORY = SGP/SGP4

EPOCH          = 2026-04-05T11:40:37.908768
MEAN_MOTION    = 14.15497913
ECCENTRICITY   = .00103444
INCLINATION    = 71.0190
RA_OF_ASC_NODE = 123.9978
ARG_OF_PERICENTER = 76.6740
MEAN_ANOMALY   = 283.5535

EPHEMERIS_TYPE = 0
CLASSIFICATION_TYPE = U
NORAD_CAT_ID   = 23705
ELEMENT_SET_NO = 999
REV_AT_EPOCH   = 57164
BSTAR          = .32893543E-4
MEAN_MOTION_DOT = .17E-6
MEAN_MOTION_DDOT = 0

CCSDS_OMM_VERS = 2.0
CREATION_DATE  = 
ORIGINATOR     = 

OBJECT_NAME    = SL-16 R/B
OBJECT_ID      = 1996-051B
CENTER_NAME    = EARTH
REF_FRAME      = TEME
TIME_SYSTEM    = UTC
MEAN_ELEMENT_THEORY = SGP/SGP4

EPOCH          = 2026-04-05T12:16:26.727744
MEAN_MOTION    = 14.12423632
ECCENTRICITY   = .00130308
INCLINATION    = 70.7579
RA_OF_ASC_NODE = 118.4686
ARG_OF_PERICENTER = 103.8013
MEAN_ANOMALY   = 256.4558

EPHEMERIS_TYPE = 0
CLASSIFICATION_TYPE = U
NORAD_CAT_ID   = 24298
ELEMENT_SET_NO = 999
REV_AT_EPOCH   = 52543
BSTAR          = .76843179E-4
MEAN_MOTION_DOT = .93E-6
MEAN_MOTION_DDOT = 0

CCSDS_OMM_VERS = 2.0
CREATION_DATE  = 
ORIGINATOR     = 

OBJECT_NAME    = ORBVIEW 2 (SEASTAR)
OBJECT_ID      = 1997-037A
CENTER_NAME    = EARTH
REF_FRAME      = TEME
TIME_SYSTEM    = UTC
MEAN_ELEMENT_THEORY = SGP/SGP4

EPOCH          = 2026-04-05T11:05:25.866816
MEAN_MOTION    = 14.35515062
ECCENTRICITY   = .00020093
INCLINATION    = 98.8613
RA_OF_ASC_NODE = 260.4898
ARG_OF_PERICENTER = 10.8613
MEAN_ANOMALY   = 349.2615

EPHEMERIS_TYPE = 0
CLASSIFICATION_TYPE = U
NORAD_CAT_ID   = 24883
ELEMENT_SET_NO = 999
REV_AT_EPOCH   = 51231
BSTAR          = .14784477E-3
MEAN_MOTION_DOT = .379E-5
MEAN_MOTION_DDOT = 0

CCSDS_OMM_VERS = 2.0
CREATION_DATE  = 
ORIGINATOR     = 

OBJECT_NAME    = SL-16 R/B
OBJECT_ID      = 1998-043G
CENTER_NAME    = EARTH
REF_FRAME      = TEME
TIME_SYSTEM    = UTC
MEAN_ELEMENT_THEORY = SGP/SGP4

EPOCH          = 2026-04-05T14:29:53.922912
MEAN_MOTION    = 14.26056469
ECCENTRICITY   = .00089158
INCLINATION    = 98.8300
RA_OF_ASC_NODE = 49.1660
ARG_OF_PERICENTER = 299.9904
MEAN_ANOMALY   = 60.0390

EPHEMERIS_TYPE = 0
CLASSIFICATION_TYPE = U
NORAD_CAT_ID   = 25400
ELEMENT_SET_NO = 999
REV_AT_EPOCH   = 44282
BSTAR          = .63559094E-4
MEAN_MOTION_DOT = .106E-5
MEAN_MOTION_DDOT = 0

